{
  "type": "FeatureCollection",
  "features": [
    {
      "type": "Feature",
      "properties": {
        "norad_id": 42989,
        "name": "SKYSAT-C9",
        "group": "resource",
        "lat": -34.611218052861005,
        "lon": 136.21704230332094,
        "alt_km": 461.57587316890385,
        "timestamp": "2025-12-26T16:33:55.241427+00:00",
        "meta_object_name": "SKYSAT-C9",
        "meta_object_id": "2017-068C",
        "meta_epoch": "2025-12-26T07:20:18.110688",
        "meta_mean_motion": 15.36393456,
        "meta_eccentricity": 0.00101874,
        "meta_inclination": 97.4193,
        "meta_ra_of_asc_node": 130.6696,
        "meta_arg_of_pericenter": 44.147,
        "meta_mean_anomaly": 316.0585,
        "meta_ephemeris_type": 0,
        "meta_classification_type": "U",
        "meta_norad_cat_id": 42989,
        "meta_element_set_no": 999,
        "meta_rev_at_epoch": 45616,
        "meta_bstar": 0.00038879754,
        "meta_mean_motion_dot": 0.0001375,
        "meta_mean_motion_ddot": 0,
        "tle_line1": "1 42989U 17068C   25360.30576517  .00013750  00000+0  38880-3 0  9999",
        "tle_line2": "2 42989  97.4193 130.6696 0010187  44.1470 316.0585 15.36393456456160"
      },
      "geometry": {
        "type": "Point",
        "coordinates": [
          136.21704230332094,
          -34.611218052861005
        ]
      }
    },
    {
      "type": "Feature",
      "properties": {
        "norad_id": 42990,
        "name": "SKYSAT-C8",
        "group": "resource",
        "lat": 41.44684059701398,
        "lon": -42.62960057760633,
        "alt_km": 463.29377360152284,
        "timestamp": "2025-12-26T16:33:55.241436+00:00",
        "meta_object_name": "SKYSAT-C8",
        "meta_object_id": "2017-068D",
        "meta_epoch": "2025-12-25T21:10:08.555808",
        "meta_mean_motion": 15.33208945,
        "meta_eccentricity": 9.45e-05,
        "meta_inclination": 97.4287,
        "meta_ra_of_asc_node": 129.942,
        "meta_arg_of_pericenter": 263.9401,
        "meta_mean_anomaly": 96.1733,
        "meta_ephemeris_type": 0,
        "meta_classification_type": "U",
        "meta_norad_cat_id": 42990,
        "meta_element_set_no": 999,
        "meta_rev_at_epoch": 45572,
        "meta_bstar": 0.00035524,
        "meta_mean_motion_dot": 0.00011324,
        "meta_mean_motion_ddot": 0,
        "tle_line1": "1 42990U 17068D   25359.88204347  .00011324  00000+0  35524-3 0  9998",
        "tle_line2": "2 42990  97.4287 129.9420 0000945 263.9401  96.1733 15.33208945455725"
      },
      "geometry": {
        "type": "Point",
        "coordinates": [
          -42.62960057760633,
          41.44684059701398
        ]
      }
    },
    {
      "type": "Feature",
      "properties": {
        "norad_id": 42991,
        "name": "SKYSAT-C7",
        "group": "resource",
        "lat": -36.43079661275852,
        "lon": 137.31100808417705,
        "alt_km": 471.34606892654847,
        "timestamp": "2025-12-26T16:33:55.241446+00:00",
        "meta_object_name": "SKYSAT-C7",
        "meta_object_id": "2017-068E",
        "meta_epoch": "2025-12-26T07:19:25.068000",
        "meta_mean_motion": 15.32614143,
        "meta_eccentricity": 0.00067889,
        "meta_inclination": 97.4296,
        "meta_ra_of_asc_node": 131.3973,
        "meta_arg_of_pericenter": 13.531,
        "meta_mean_anomaly": 346.6113,
        "meta_ephemeris_type": 0,
        "meta_classification_type": "U",
        "meta_norad_cat_id": 42991,
        "meta_element_set_no": 999,
        "meta_rev_at_epoch": 45585,
        "meta_bstar": 0.00036826425,
        "meta_mean_motion_dot": 0.00011532,
        "meta_mean_motion_ddot": 0,
        "tle_line1": "1 42991U 17068E   25360.30515125  .00011532  00000+0  36826-3 0  9994",
        "tle_line2": "2 42991  97.4296 131.3973 0006788  13.5310 346.6113 15.32614143455854"
      },
      "geometry": {
        "type": "Point",
        "coordinates": [
          137.31100808417705,
          -36.43079661275852
        ]
      }
    },
    {
      "type": "Feature",
      "properties": {
        "norad_id": 42992,
        "name": "SKYSAT-C6",
        "group": "resource",
        "lat": 37.624887005126695,
        "lon": 126.43567526727183,
        "alt_km": 464.6229361716696,
        "timestamp": "2025-12-26T16:33:55.241455+00:00",
        "meta_object_name": "SKYSAT-C6",
        "meta_object_id": "2017-068F",
        "meta_epoch": "2025-12-25T20:01:06.090528",
        "meta_mean_motion": 15.31757076,
        "meta_eccentricity": 0.00047376,
        "meta_inclination": 97.4326,
        "meta_ra_of_asc_node": 131.3522,
        "meta_arg_of_pericenter": 46.8398,
        "meta_mean_anomaly": 313.3239,
        "meta_ephemeris_type": 0,
        "meta_classification_type": "U",
        "meta_norad_cat_id": 42992,
        "meta_element_set_no": 999,
        "meta_rev_at_epoch": 45576,
        "meta_bstar": 0.00037471515,
        "meta_mean_motion_dot": 0.0001142,
        "meta_mean_motion_ddot": 0,
        "tle_line1": "1 42992U 17068F   25359.83409827  .00011420  00000+0  37472-3 0  9996",
        "tle_line2": "2 42992  97.4326 131.3522 0004737  46.8398 313.3239 15.31757076455768"
      },
      "geometry": {
        "type": "Point",
        "coordinates": [
          126.43567526727183,
          37.624887005126695
        ]
      }
    },
    {
      "type": "Feature",
      "properties": {
        "norad_id": 43111,
        "name": "CARTOSAT-2F",
        "group": "resource",
        "lat": -62.977623110094065,
        "lon": -136.72334717938338,
        "alt_km": 516.0369256447293,
        "timestamp": "2025-12-26T16:33:55.241463+00:00",
        "meta_object_name": "CARTOSAT-2F",
        "meta_object_id": "2018-004A",
        "meta_epoch": "2025-12-26T06:00:38.745216",
        "meta_mean_motion": 15.19254596,
        "meta_eccentricity": 0.00015539,
        "meta_inclination": 97.4293,
        "meta_ra_of_asc_node": 57.6681,
        "meta_arg_of_pericenter": 111.8418,
        "meta_mean_anomaly": 248.2982,
        "meta_ephemeris_type": 0,
        "meta_classification_type": "U",
        "meta_norad_cat_id": 43111,
        "meta_element_set_no": 999,
        "meta_rev_at_epoch": 44107,
        "meta_bstar": 0.00027198855,
        "meta_mean_motion_dot": 5.666e-05,
        "meta_mean_motion_ddot": 0,
        "tle_line1": "1 43111U 18004A   25360.25044844  .00005666  00000+0  27199-3 0  9993",
        "tle_line2": "2 43111  97.4293  57.6681 0001553 111.8418 248.2982 15.19254596441075"
      },
      "geometry": {
        "type": "Point",
        "coordinates": [
          -136.72334717938338,
          -62.977623110094065
        ]
      }
    },
    {
      "type": "Feature",
      "properties": {
        "norad_id": 43259,
        "name": "GAOFEN-1 02",
        "group": "resource",
        "lat": 23.179391931661414,
        "lon": 54.99650029484874,
        "alt_km": 641.6689556290185,
        "timestamp": "2025-12-26T16:33:55.241473+00:00",
        "meta_object_name": "GAOFEN-1 02",
        "meta_object_id": "2018-031A",
        "meta_epoch": "2025-12-26T06:42:01.672128",
        "meta_mean_motion": 14.76444601,
        "meta_eccentricity": 0.00027126,
        "meta_inclination": 98.0784,
        "meta_ra_of_asc_node": 58.072,
        "meta_arg_of_pericenter": 167.9443,
        "meta_mean_anomaly": 192.1831,
        "meta_ephemeris_type": 0,
        "meta_classification_type": "U",
        "meta_norad_cat_id": 43259,
        "meta_element_set_no": 999,
        "meta_rev_at_epoch": 41718,
        "meta_bstar": 0.00022564593,
        "meta_mean_motion_dot": 1.518e-05,
        "meta_mean_motion_ddot": 0,
        "tle_line1": "1 43259U 18031A   25360.27918602  .00001518  00000+0  22565-3 0  9994",
        "tle_line2": "2 43259  98.0784  58.0720 0002712 167.9443 192.1831 14.76444601417182"
      },
      "geometry": {
        "type": "Point",
        "coordinates": [
          54.99650029484874,
          23.179391931661414
        ]
      }
    },
    {
      "type": "Feature",
      "properties": {
        "norad_id": 43260,
        "name": "GAOFEN-1 03",
        "group": "resource",
        "lat": 39.758282168558694,
        "lon": -114.85534569546377,
        "alt_km": 637.9955481540001,
        "timestamp": "2025-12-26T16:33:55.241482+00:00",
        "meta_object_name": "GAOFEN-1 03",
        "meta_object_id": "2018-031B",
        "meta_epoch": "2025-12-26T06:10:31.736928",
        "meta_mean_motion": 14.76426035,
        "meta_eccentricity": 0.00016445,
        "meta_inclination": 98.078,
        "meta_ra_of_asc_node": 57.9261,
        "meta_arg_of_pericenter": 252.6735,
        "meta_mean_anomaly": 107.4295,
        "meta_ephemeris_type": 0,
        "meta_classification_type": "U",
        "meta_norad_cat_id": 43260,
        "meta_element_set_no": 999,
        "meta_rev_at_epoch": 41717,
        "meta_bstar": 0.00016521888,
        "meta_mean_motion_dot": 1.097e-05,
        "meta_mean_motion_ddot": 0,
        "tle_line1": "1 43260U 18031B   25360.25731177  .00001097  00000+0  16522-3 0  9992",
        "tle_line2": "2 43260  98.0780  57.9261 0001644 252.6735 107.4295 14.76426035417170"
      },
      "geometry": {
        "type": "Point",
        "coordinates": [
          -114.85534569546377,
          39.758282168558694
        ]
      }
    }
  ]
}